{"fetched_at":"2026-07-12T05:52:32.048Z","source":"https://celestrak.org/NORAD/elements/gp.php?GROUP=kuiper&FORMAT=JSON","constellation":"kuiper","records":[{"OBJECT_NAME":"KUIPER-00572","OBJECT_ID":"2026-118F","EPOCH":"2026-07-11T20:00:03.000384","CLASSIFICATION_TYPE":"U","MEAN_MOTION":15.31183407,"ECCENTRICITY":0.0006187,"INCLINATION":51.871,"RA_OF_ASC_NODE":294.3768,"ARG_OF_PERICENTER":275.8291,"MEAN_ANOMALY":306.608,"EPHEMERIS_TYPE":0,"NORAD_CAT_ID":69272,"ELEMENT_SET_NO":999,"REV_AT_EPOCH":524,"BSTAR":-0.039913,"MEAN_MOTION_DOT":-0.01115927,"MEAN_MOTION_DDOT":0},{"OBJECT_NAME":"KUIPER-00581","OBJECT_ID":"2026-118G","EPOCH":"2026-07-11T20:00:03.000384","CLASSIFICATION_TYPE":"U","MEAN_MOTION":15.06634518,"ECCENTRICITY":0.0007883,"INCLINATION":51.8892,"RA_OF_ASC_NODE":295.7096,"ARG_OF_PERICENTER":285.4524,"MEAN_ANOMALY":315.0195,"EPHEMERIS_TYPE":0,"NORAD_CAT_ID":69273,"ELEMENT_SET_NO":999,"REV_AT_EPOCH":539,"BSTAR":-0.0047338,"MEAN_MOTION_DOT":-0.00070646,"MEAN_MOTION_DDOT":0},{"OBJECT_NAME":"KUIPER-00584","OBJECT_ID":"2026-118H","EPOCH":"2026-07-11T20:00:03.000384","CLASSIFICATION_TYPE":"U","MEAN_MOTION":14.96493094,"ECCENTRICITY":0.0011217,"INCLINATION":51.89,"RA_OF_ASC_NODE":297.4715,"ARG_OF_PERICENTER":303.4833,"MEAN_ANOMALY":103.594,"EPHEMERIS_TYPE":0,"NORAD_CAT_ID":69274,"ELEMENT_SET_NO":999,"REV_AT_EPOCH":545,"BSTAR":-0.0021678,"MEAN_MOTION_DOT":-0.00025092,"MEAN_MOTION_DDOT":0},{"OBJECT_NAME":"KUIPER-00587","OBJECT_ID":"2026-118J","EPOCH":"2026-07-11T15:41:13.714944","CLASSIFICATION_TYPE":"U","MEAN_MOTION":15.37096641,"ECCENTRICITY":0.0007306,"INCLINATION":51.8634,"RA_OF_ASC_NODE":295.1258,"ARG_OF_PERICENTER":285.1726,"MEAN_ANOMALY":74.8452,"EPHEMERIS_TYPE":0,"NORAD_CAT_ID":69275,"ELEMENT_SET_NO":999,"REV_AT_EPOCH":774,"BSTAR":0.0003598,"MEAN_MOTION_DOT":0.00012908,"MEAN_MOTION_DDOT":0},{"OBJECT_NAME":"KUIPER-00590","OBJECT_ID":"2026-118K","EPOCH":"2026-07-11T20:00:03.000384","CLASSIFICATION_TYPE":"U","MEAN_MOTION":15.20370635,"ECCENTRICITY":0.000118,"INCLINATION":51.8769,"RA_OF_ASC_NODE":294.5464,"ARG_OF_PERICENTER":3.8524,"MEAN_ANOMALY":168.2313,"EPHEMERIS_TYPE":0,"NORAD_CAT_ID":69276,"ELEMENT_SET_NO":999,"REV_AT_EPOCH":466,"BSTAR":-0.0328,"MEAN_MOTION_DOT":-0.00677527,"MEAN_MOTION_DDOT":0},{"OBJECT_NAME":"KUIPER-00592","OBJECT_ID":"2026-118L","EPOCH":"2026-07-11T20:00:03.000384","CLASSIFICATION_TYPE":"U","MEAN_MOTION":15.25645308,"ECCENTRICITY":0.0001244,"INCLINATION":51.8756,"RA_OF_ASC_NODE":294.434,"ARG_OF_PERICENTER":173.1775,"MEAN_ANOMALY":58.0303,"EPHEMERIS_TYPE":0,"NORAD_CAT_ID":69277,"ELEMENT_SET_NO":999,"REV_AT_EPOCH":397,"BSTAR":-0.088246,"MEAN_MOTION_DOT":-0.02051603,"MEAN_MOTION_DDOT":0},{"OBJECT_NAME":"KUIPER-00593","OBJECT_ID":"2026-118M","EPOCH":"2026-07-11T13:09:43.634880","CLASSIFICATION_TYPE":"U","MEAN_MOTION":15.40984515,"ECCENTRICITY":0.0018824,"INCLINATION":51.8745,"RA_OF_ASC_NODE":295.2076,"ARG_OF_PERICENTER":277.1826,"MEAN_ANOMALY":82.7022,"EPHEMERIS_TYPE":0,"NORAD_CAT_ID":69278,"ELEMENT_SET_NO":999,"REV_AT_EPOCH":779,"BSTAR":0.039347,"MEAN_MOTION_DOT":0.01840179,"MEAN_MOTION_DDOT":0},{"OBJECT_NAME":"KUIPER-00594","OBJECT_ID":"2026-118N","EPOCH":"2026-07-11T14:39:44.434944","CLASSIFICATION_TYPE":"U","MEAN_MOTION":15.37386222,"ECCENTRICITY":0.0001834,"INCLINATION":51.8736,"RA_OF_ASC_NODE":294.8746,"ARG_OF_PERICENTER":52.1563,"MEAN_ANOMALY":307.9589,"EPHEMERIS_TYPE":0,"NORAD_CAT_ID":69279,"ELEMENT_SET_NO":999,"REV_AT_EPOCH":774,"BSTAR":0.00028559,"MEAN_MOTION_DOT":0.00010254,"MEAN_MOTION_DDOT":0},{"OBJECT_NAME":"KUIPER-00595","OBJECT_ID":"2026-118P","EPOCH":"2026-07-11T14:43:36.158016","CLASSIFICATION_TYPE":"U","MEAN_MOTION":15.37403368,"ECCENTRICITY":0.000148,"INCLINATION":51.8719,"RA_OF_ASC_NODE":294.8958,"ARG_OF_PERICENTER":0.2315,"MEAN_ANOMALY":359.8672,"EPHEMERIS_TYPE":0,"NORAD_CAT_ID":69280,"ELEMENT_SET_NO":999,"REV_AT_EPOCH":777,"BSTAR":0.00038719,"MEAN_MOTION_DOT":0.00014056,"MEAN_MOTION_DDOT":0},{"OBJECT_NAME":"KUIPER-00596","OBJECT_ID":"2026-118Q","EPOCH":"2026-07-11T20:00:03.000384","CLASSIFICATION_TYPE":"U","MEAN_MOTION":14.97575518,"ECCENTRICITY":0.0012709,"INCLINATION":51.9055,"RA_OF_ASC_NODE":297.3366,"ARG_OF_PERICENTER":293.0545,"MEAN_ANOMALY":204.5478,"EPHEMERIS_TYPE":0,"NORAD_CAT_ID":69281,"ELEMENT_SET_NO":999,"REV_AT_EPOCH":556,"BSTAR":-0.071247,"MEAN_MOTION_DOT":-0.00787699,"MEAN_MOTION_DDOT":0},{"OBJECT_NAME":"KUIPER-00597","OBJECT_ID":"2026-118R","EPOCH":"2026-07-11T15:23:09.018240","CLASSIFICATION_TYPE":"U","MEAN_MOTION":15.37699278,"ECCENTRICITY":0.0006139,"INCLINATION":51.8648,"RA_OF_ASC_NODE":295.0521,"ARG_OF_PERICENTER":272.5208,"MEAN_ANOMALY":87.5076,"EPHEMERIS_TYPE":0,"NORAD_CAT_ID":69282,"ELEMENT_SET_NO":999,"REV_AT_EPOCH":774,"BSTAR":0.00030652,"MEAN_MOTION_DOT":0.00011154,"MEAN_MOTION_DDOT":0},{"OBJECT_NAME":"KUIPER-00599","OBJECT_ID":"2026-118S","EPOCH":"2026-07-11T12:06:20.045952","CLASSIFICATION_TYPE":"U","MEAN_MOTION":15.37806648,"ECCENTRICITY":0.0005753,"INCLINATION":51.8689,"RA_OF_ASC_NODE":295.652,"ARG_OF_PERICENTER":269.4069,"MEAN_ANOMALY":90.6258,"EPHEMERIS_TYPE":0,"NORAD_CAT_ID":69283,"ELEMENT_SET_NO":999,"REV_AT_EPOCH":772,"BSTAR":0.00040174085,"MEAN_MOTION_DOT":0.00014801,"MEAN_MOTION_DDOT":0},{"OBJECT_NAME":"KUIPER-00600","OBJECT_ID":"2026-118T","EPOCH":"2026-07-11T15:36:50.323680","CLASSIFICATION_TYPE":"U","MEAN_MOTION":15.37360177,"ECCENTRICITY":0.0007934,"INCLINATION":51.8644,"RA_OF_ASC_NODE":295.1103,"ARG_OF_PERICENTER":272.0007,"MEAN_ANOMALY":88.0071,"EPHEMERIS_TYPE":0,"NORAD_CAT_ID":69284,"ELEMENT_SET_NO":999,"REV_AT_EPOCH":774,"BSTAR":0.00032137,"MEAN_MOTION_DOT":0.00011587,"MEAN_MOTION_DDOT":0},{"OBJECT_NAME":"KUIPER-00601","OBJECT_ID":"2026-118U","EPOCH":"2026-07-11T20:00:03.000384","CLASSIFICATION_TYPE":"U","MEAN_MOTION":15.21082592,"ECCENTRICITY":0.0002895,"INCLINATION":51.881,"RA_OF_ASC_NODE":294.5547,"ARG_OF_PERICENTER":263.4612,"MEAN_ANOMALY":236.6802,"EPHEMERIS_TYPE":0,"NORAD_CAT_ID":69285,"ELEMENT_SET_NO":999,"REV_AT_EPOCH":527,"BSTAR":-0.036891,"MEAN_MOTION_DOT":-0.00771212,"MEAN_MOTION_DDOT":0},{"OBJECT_NAME":"KUIPER-00602","OBJECT_ID":"2026-118V","EPOCH":"2026-07-11T14:38:46.673088","CLASSIFICATION_TYPE":"U","MEAN_MOTION":15.38843089,"ECCENTRICITY":0.000196,"INCLINATION":51.8712,"RA_OF_ASC_NODE":294.8696,"ARG_OF_PERICENTER":268.8839,"MEAN_ANOMALY":91.1923,"EPHEMERIS_TYPE":0,"NORAD_CAT_ID":69286,"ELEMENT_SET_NO":999,"REV_AT_EPOCH":774,"BSTAR":0.00025844,"MEAN_MOTION_DOT":0.00009703,"MEAN_MOTION_DDOT":0},{"OBJECT_NAME":"KUIPER-00603","OBJECT_ID":"2026-118W","EPOCH":"2026-07-11T11:56:27.617568","CLASSIFICATION_TYPE":"U","MEAN_MOTION":15.38167791,"ECCENTRICITY":0.00053524,"INCLINATION":51.8658,"RA_OF_ASC_NODE":295.5999,"ARG_OF_PERICENTER":271.6847,"MEAN_ANOMALY":88.3527,"EPHEMERIS_TYPE":0,"NORAD_CAT_ID":69287,"ELEMENT_SET_NO":999,"REV_AT_EPOCH":772,"BSTAR":0.0003874201,"MEAN_MOTION_DOT":0.00014429,"MEAN_MOTION_DDOT":0}]}
