[
  {
    "name": "KUIPER-00572",
    "noradId": "69272",
    "line1": "1 69272U 26118F   26192.83336806 -.01115927  00000+0 -39913-1 0  9994",
    "line2": "2 69272  51.8710 294.3768 0006187 275.8291 306.6080 15.31183407  5242"
  },
  {
    "name": "KUIPER-00581",
    "noradId": "69273",
    "line1": "1 69273U 26118G   26192.83336806 -.00070646  00000+0 -47338-2 0  9993",
    "line2": "2 69273  51.8892 295.7096 0007883 285.4524 315.0195 15.06634518  5396"
  },
  {
    "name": "KUIPER-00584",
    "noradId": "69274",
    "line1": "1 69274U 26118H   26192.83336806 -.00025092  00000+0 -21678-2 0  9998",
    "line2": "2 69274  51.8900 297.4715 0011217 303.4833 103.5940 14.96493094  5459"
  },
  {
    "name": "KUIPER-00587",
    "noradId": "69275",
    "line1": "1 69275U 26118J   26192.65363096  .00012908  00000+0  35980-3 0  9992",
    "line2": "2 69275  51.8634 295.1258 0007306 285.1726  74.8452 15.37096641  7747"
  },
  {
    "name": "KUIPER-00590",
    "noradId": "69276",
    "line1": "1 69276U 26118K   26192.83336806 -.00677527  00000+0 -32800-1 0  9994",
    "line2": "2 69276  51.8769 294.5464 0001180   3.8524 168.2313 15.20370635  4666"
  },
  {
    "name": "KUIPER-00592",
    "noradId": "69277",
    "line1": "1 69277U 26118L   26192.83336806 -.02051603  00000+0 -88246-1 0  9993",
    "line2": "2 69277  51.8756 294.4340 0001244 173.1775  58.0303 15.25645308  3970"
  },
  {
    "name": "KUIPER-00593",
    "noradId": "69278",
    "line1": "1 69278U 26118M   26192.54842170  .01840179  00000+0  39347-1 0  9997",
    "line2": "2 69278  51.8745 295.2076 0018824 277.1826  82.7022 15.40984515  7797"
  },
  {
    "name": "KUIPER-00594",
    "noradId": "69279",
    "line1": "1 69279U 26118N   26192.61093096  .00010254  00000+0  28559-3 0  9998",
    "line2": "2 69279  51.8736 294.8746 0001834  52.1563 307.9589 15.37386222  7741"
  },
  {
    "name": "KUIPER-00595",
    "noradId": "69280",
    "line1": "1 69280U 26118P   26192.61361294  .00014056  00000+0  38719-3 0  9991",
    "line2": "2 69280  51.8719 294.8958 0001480   0.2315 359.8672 15.37403368  7778"
  },
  {
    "name": "KUIPER-00596",
    "noradId": "69281",
    "line1": "1 69281U 26118Q   26192.83336806 -.00787699  00000+0 -71247-1 0  9990",
    "line2": "2 69281  51.9055 297.3366 0012709 293.0545 204.5478 14.97575518  5564"
  },
  {
    "name": "KUIPER-00597",
    "noradId": "69282",
    "line1": "1 69282U 26118R   26192.64107660  .00011154  00000+0  30652-3 0  9995",
    "line2": "2 69282  51.8648 295.0521 0006139 272.5208  87.5076 15.37699278  7748"
  },
  {
    "name": "KUIPER-00599",
    "noradId": "69283",
    "line1": "1 69283U 26118S   26192.50439868  .00014801  00000+0  40174-3 0  9991",
    "line2": "2 69283  51.8689 295.6520 0005753 269.4069  90.6258 15.37806648  7726"
  },
  {
    "name": "KUIPER-00600",
    "noradId": "69284",
    "line1": "1 69284U 26118T   26192.65058245  .00011587  00000+0  32137-3 0  9992",
    "line2": "2 69284  51.8644 295.1103 0007934 272.0007  88.0071 15.37360177  7743"
  },
  {
    "name": "KUIPER-00601",
    "noradId": "69285",
    "line1": "1 69285U 26118U   26192.83336806 -.00771212  00000+0 -36891-1 0  9994",
    "line2": "2 69285  51.8810 294.5547 0002895 263.4612 236.6802 15.21082592  5275"
  },
  {
    "name": "KUIPER-00602",
    "noradId": "69286",
    "line1": "1 69286U 26118V   26192.61026242  .00009703  00000+0  25844-3 0  9996",
    "line2": "2 69286  51.8712 294.8696 0001960 268.8839  91.1923 15.38843089  7743"
  },
  {
    "name": "KUIPER-00603",
    "noradId": "69287",
    "line1": "1 69287U 26118W   26192.49754187  .00014429  00000+0  38742-3 0  9991",
    "line2": "2 69287  51.8658 295.5999 0005352 271.6847  88.3527 15.38167791  7722"
  }
]